IRIDIUM 63              
1 25286U 98021B   25087.79486389  .00000909  00000+0  30345-3 0  9994
2 25286  86.3941 115.8705 0002340  95.2462 264.9002 14.36449638412301
IRIDIUM 69              
1 25319U 98026A   25087.63692724  .00001143  00000+0  35070-3 0  9992
2 25319  86.3963 129.4688 0000707  14.7795 345.3425 14.40855408411463
IRIDIUM 71              
1 25320U 98026B   25087.79353458  .00000951  00000+0  28952-3 0  9996
2 25320  86.3950 124.1083 0002887  45.1014 315.0419 14.41057815412011
IRIDIUM 73              
1 25344U 98032C   25087.96386049  .00001729  00000+0  42740-3 0  9995
2 25344  86.4359  80.8910 0001728  88.8612 271.2792 14.51556610418920
IRIDIUM 82              
1 25467U 98051A   25087.91103219  .00035149  00000+0  11489-2 0  9991
2 25467  86.3715 149.0665 0092026 239.1960 120.0206 15.27476646411685
